{"fetched_at":"2026-03-29T16:36:15Z","count":15609,"tles":[{"name":"STARLINK-4767","line1":"1 53850U 22114AJ  26087.81063519  .00000289  00000+0  36264-4 0  9990","line2":"2 53850  53.2170 207.9012 0001223  89.1861 270.9272 15.08843485195867","category":"Starlink"}]}