{
  "norad_id": 53850,
  "name": "STARLINK-4767",
  "history": [
    {
      "epoch": "2026-03-28T19:27:18.880416Z",
      "apogee_km": 540.57920727479,
      "perigee_km": 538.886266192816,
      "latitude_deg": 5.440992724677007e-05,
      "longitude_deg": 89.84683766124093,
      "height_km": 540.6165581195982,
      "semi_major_axis_km": 6917.869736733803,
      "eccentricity": 0.00012236,
      "inclination_deg": 53.217,
      "raan_deg": 207.9012,
      "arg_perigee_deg": 89.1861,
      "mean_anomaly_deg": 270.9272,
      "mean_motion_rev_day": 15.08843485
    }
  ]
}